{
  "norad_id": 54756,
  "name": "O3B MPOWER F2",
  "history": [
    {
      "epoch": "2026-03-28T18:05:51.259200",
      "apogee_km": 8074.491982963741,
      "perigee_km": 8057.287413882715,
      "latitude_deg": 0.022738106848268574,
      "longitude_deg": 87.99028800008819,
      "semi_major_axis_km": 14444.026698423228,
      "eccentricity": 0.00059556,
      "inclination_deg": 0.0601,
      "raan_deg": 346.6754,
      "arg_perigee_deg": 19.2124,
      "mean_anomaly_deg": 354.1144,
      "mean_motion_rev_day": 5.00115527
    },
    {
      "epoch": "2026-03-28T22:53:41.802720",
      "apogee_km": 8074.489402199429,
      "perigee_km": 8057.289455527939,
      "latitude_deg": -0.025808852056101683,
      "longitude_deg": 107.17978080012836,
      "semi_major_axis_km": 14444.026428863684,
      "eccentricity": 0.0005954,
      "inclination_deg": 0.06,
      "raan_deg": 346.6653,
      "arg_perigee_deg": 19.4223,
      "mean_anomaly_deg": 353.9149,
      "mean_motion_rev_day": 5.00115541
    }
  ]
}